NORAD_CAT_ID,OBJECT_NAME,OBJECT_TYPE,EPOCH,MEAN_MOTION,ECCENTRICITY,INCLINATION,RA_OF_ASC_NODE,ARG_OF_PERICENTER,MEAN_ANOMALY,BSTAR,MEAN_MOTION_DOT,MEAN_MOTION_DDOT,TLE_LINE0,TLE_LINE1,TLE_LINE2,SEMIMAJOR_AXIS,PERIOD,APOGEE,PERIGEE,DECAYED
52631.0,STARLINK-3794,PAYLOAD,2023-01-05 04:13:06,15.08864442,0.0003036,53.2179,74.3988,26.6921,333.4227,0.00046711,7.159e-05,0.0,0 STARLINK-3794,1 52631U 22052AK  23005.17577073  .00007159  00000-0  46711-3 0  9999,2 52631  53.2179  74.3988 0003036  26.6921 333.4227 15.08864442 36323,6917.806,95.436,541.771,537.57,0.0
52631.0,STARLINK-3794,PAYLOAD,2023-01-05 13:45:24,15.08865746,0.0003003999999999,53.2172,72.6154,23.9556,336.1575,0.00035473,5.366e-05,0.0,0 STARLINK-3794,1 52631U 22052AK  23005.57320483  .00005366  00000-0  35473-3 0  9995,2 52631  53.2172  72.6154 0003004  23.9556 336.1575 15.08865746 36011,6917.802,95.436,541.745,537.589,0.0
52631.0,STARLINK-3794,PAYLOAD,2023-01-06 10:25:26,15.08822582,0.0002947,53.2173,68.7481,21.2174,338.8939,-0.00057582,-9.437e-05,0.0,0 STARLINK-3794,1 52631U 22052AK  23006.43433432 -.00009437  00000-0 -57582-3 0  9990,2 52631  53.2173  68.7481 0002947  21.2174 338.8939 15.08822582 36512,6917.934,95.439,541.837,537.76,0.0
52631.0,STARLINK-3794,PAYLOAD,2023-01-07 02:19:18,15.08831013,0.000307,53.2171,65.775,17.5508,342.559,0.00089965,0.00014056,0.0,0 STARLINK-3794,1 52631U 22052AK  23007.09674062  .00014056  00000-0  89965-3 0  9990,2 52631  53.2171  65.7750 0003070  17.5508 342.5590 15.08831013 36618,6917.908,95.438,541.8969999999998,537.649,0.0
52631.0,STARLINK-3794,PAYLOAD,2023-01-07 05:30:04,15.088366699999998,0.0003077,53.2171,65.1803,17.1553,342.9542,0.0015634,0.0002468,0.0,0 STARLINK-3794,1 52631U 22052AK  23007.22922260  .00024680  00000-0  15634-2 0  9996,2 52631  53.2171  65.1803 0003077  17.1553 342.9542 15.08836670 36260,6917.891,95.438,541.884,537.627,0.0
52631.0,STARLINK-3794,PAYLOAD,2023-01-07 13:27:00,15.08855509,0.0003135,53.2171,63.6937,18.2128,341.8976,0.0016977,0.00026847,0.0,0 STARLINK-3794,1 52631U 22052AK  23007.56042102  .00026847  00000-0  16977-2 0  9999,2 52631  53.2171  63.6937 0003135  18.2128 341.8976 15.08855509 36683,6917.833000000001,95.437,541.867,537.529,0.0
52631.0,STARLINK-3794,PAYLOAD,2023-01-08 03:45:29,15.08836998,0.0003423,53.2166,61.018,21.5581,338.5555,0.00050206,7.711e-05,0.0,0 STARLINK-3794,1 52631U 22052AK  23008.15658968  .00007711  00000-0  50206-3 0  9991,2 52631  53.2166  61.0180 0003423  21.5581 338.5555 15.08836998 36776,6917.89,95.438,542.123,537.387,0.0
52631.0,STARLINK-3794,PAYLOAD,2023-01-08 10:07:01,15.088436800000002,0.0003154,53.2175,59.8282,20.7389,339.3731,0.00065069,0.00010084,0.0,0 STARLINK-3794,1 52631U 22052AK  23008.42154920  .00010084  00000-0  65069-3 0  9990,2 52631  53.2175  59.8282 0003154  20.7389 339.3731 15.08843680 36447,6917.8690000000015,95.437,541.9159999999998,537.552,0.0
52631.0,STARLINK-3794,PAYLOAD,2023-01-09 11:33:11,15.088521,0.0003108,53.2174,55.0692,20.277,339.8345,0.00071421,0.00011101,0.0,0 STARLINK-3794,1 52631U 22052AK  23009.48138679  .00011101  00000-0  71421-3 0  9990,2 52631  53.2174  55.0692 0003108  20.2770 339.8345 15.08852100 36978,6917.843000000002,95.437,541.8580000000002,537.558,0.0
52631.0,STARLINK-3794,PAYLOAD,2023-01-10 11:23:58,15.08838429,0.0003102,53.2172,50.6093,19.3451,340.7658,-1.6964000000000002e-05,-5.59e-06,0.0,0 STARLINK-3794,1 52631U 22052AK  23010.47498790 -.00000559  00000-0 -16964-4 0  9993,2 52631  53.2172  50.6093 0003102  19.3451 340.7658 15.08838429 37125,6917.885,95.438,541.896,537.604,0.0
52631.0,STARLINK-3794,PAYLOAD,2023-01-10 19:20:54,15.08830242,0.0003143,53.2172,49.12300000000001,20.8311,339.2808,-0.00017738,-3.11e-05,0.0,0 STARLINK-3794,1 52631U 22052AK  23010.80619115 -.00003110  00000-0 -17738-3 0  9991,2 52631  53.2172  49.1230 0003143  20.8311 339.2808 15.08830242 36807,6917.91,95.438,541.95,537.601,0.0
52631.0,STARLINK-3794,PAYLOAD,2023-01-11 09:39:22,15.08850325,0.0003173,53.2165,46.4447,23.8711,336.2428,0.00026716,3.967e-05,0.0,0 STARLINK-3794,1 52631U 22052AK  23011.40234423  .00003967  00000-0  26716-3 0  9997,2 52631  53.2165  46.4447 0003173  23.8711 336.2428 15.08850325 37269,6917.849,95.437,541.909,537.519,0.0
52631.0,STARLINK-3794,PAYLOAD,2023-01-11 19:11:41,15.0885171,0.0003206,53.2166,44.6609,20.7634,339.3488,0.00026701,3.965e-05,0.0,0 STARLINK-3794,1 52631U 22052AK  23011.79978232  .00003965  00000-0  26701-3 0  9994,2 52631  53.2166  44.6609 0003206  20.7634 339.3488 15.08851710 36951,6917.845,95.437,541.927,537.492,0.0
52631.0,STARLINK-3794,PAYLOAD,2023-01-12 19:02:27,15.08848747,0.00031,53.2161,40.1998,24.9334,335.1808,9.005100000000001e-05,1.145e-05,0.0,0 STARLINK-3794,1 52631U 22052AK  23012.79337900  .00001145  00000-0  90051-4 0  9994,2 52631  53.2161  40.1998 0003100  24.9334 335.1808 15.08848747 37478,6917.854,95.437,541.863,537.5740000000002,0.0
52631.0,STARLINK-3794,PAYLOAD,2023-01-12 22:13:14,15.08821773,0.0003025,53.2159,39.6055,27.51,332.6051,-0.00081442,-0.00013221,0.0,0 STARLINK-3794,1 52631U 22052AK  23012.92586324 -.00013221  00000-0 -81442-3 0  9998,2 52631  53.2159  39.6055 0003025  27.5100 332.6051 15.08821773 37492,6917.936,95.439,541.894,537.7080000000002,0.0
52631.0,STARLINK-3794,PAYLOAD,2023-01-13 07:45:33,15.08824151,0.0003003999999999,53.2162,37.8223,28.0021,332.1132,-0.00024657,-4.209e-05,0.0,0 STARLINK-3794,1 52631U 22052AK  23013.32330969 -.00004209  00000-0 -24657-3 0  9996,2 52631  53.2162  37.8223 0003004  28.0021 332.1132 15.08824151 37182,6917.929,95.439,541.872,537.716,0.0
52631.0,STARLINK-3794,PAYLOAD,2023-01-13 18:53:16,15.08827753,0.0002951,53.2164,35.7406,29.1105,331.0051,0.00029172,4.356e-05,0.0,0 STARLINK-3794,1 52631U 22052AK  23013.78699624  .00004356  00000-0  29172-3 0  9990,2 52631  53.2164  35.7406 0002951  29.1105 331.0051 15.08827753 37627,6917.918000000001,95.438,541.8240000000001,537.741,0.0
52631.0,STARLINK-3794,PAYLOAD,2023-01-14 07:36:21,15.08847384,0.0002804,53.2165,33.3616,36.29,323.8281,0.0013455,0.00021196,0.0,0 STARLINK-3794,1 52631U 22052AK  23014.31692112  .00021196  00000-0  13455-2 0  9992,2 52631  53.2165  33.3616 0002804  36.2900 323.8281 15.08847384 37709,6917.858,95.437,541.663,537.783,0.0
52631.0,STARLINK-3794,PAYLOAD,2023-01-14 18:44:04,15.08842792,0.0002849,53.2152,31.2806,34.3905,325.7271,0.00058036,8.961e-05,0.0,0 STARLINK-3794,1 52631U 22052AK  23014.78060208  .00008961  00000-0  58036-3 0  9998,2 52631  53.2152  31.2806 0002849  34.3905 325.7271 15.08842792 37771,6917.871999999999,95.437,541.7080000000001,537.766,0.0
52631.0,STARLINK-3794,PAYLOAD,2023-01-15 01:05:36,15.08836024,0.0002904,53.2168,30.0907,38.3751,321.7447,0.00033426,5.035e-05,0.0,0 STARLINK-3794,1 52631U 22052AK  23015.04556580  .00005035  00000-0  33426-3 0  9996,2 52631  53.2168  30.0907 0002904  38.3751 321.7447 15.08836024 37819,6917.893,95.438,541.766,537.749,0.0
52631.0,STARLINK-3794,PAYLOAD,2023-01-15 07:27:09,15.08847189,0.0002833999999999,53.2167,28.9011,41.1148,319.0058,0.00061272,9.479e-05,0.0,0 STARLINK-3794,1 52631U 22052AK  23015.31052442  .00009479  00000-0  61272-3 0  9990,2 52631  53.2167  28.9011 0002834  41.1148 319.0058 15.08847189 37489,6917.858,95.437,541.684,537.763,0.0
52631.0,STARLINK-3794,PAYLOAD,2023-01-16 10:28:41,15.08886538,0.0002506999999999,53.2148,23.8452,44.9453,315.1741,0.0015914,0.00025163,0.0,0 STARLINK-3794,1 52631U 22052AK  23016.43659163  .00025163  00000-0  15914-2 0  9996,2 52631  53.2148  23.8452 0002507  44.9453 315.1741 15.08886538 38026,6917.738,95.435,541.337,537.869,0.0
52631.0,STARLINK-3794,PAYLOAD,2023-01-16 16:50:14,15.08830836,0.000273,53.216,22.6567,56.8008,303.3245,-0.0004625,-7.64e-05,0.0,0 STARLINK-3794,1 52631U 22052AK  23016.70156067 -.00007640  00000-0 -46250-3 0  9991,2 52631  53.2160  22.6567 0002730  56.8008 303.3245 15.08830836 38062,6917.908,95.438,541.6619999999999,537.885,0.0
52631.0,STARLINK-3794,PAYLOAD,2023-01-17 07:08:43,15.08815908,0.0002031,53.2151,19.9805,49.5881,310.5288,-0.00010243,-1.917e-05,0.0,0 STARLINK-3794,1 52631U 22052AK  23017.29773101 -.00001917  00000-0 -10243-3 0  9994,2 52631  53.2151  19.9805 0002031  49.5881 310.5288 15.08815908 38158,6917.954000000001,95.439,541.224,538.414,0.0
52631.0,STARLINK-3794,PAYLOAD,2023-01-17 16:41:03,15.088250699999998,0.0002279999999999,53.2154,18.1984,68.4457,291.6778,0.00078082,0.00012156,0.0,0 STARLINK-3794,1 52631U 22052AK  23017.69517744  .00012156  00000-0  78082-3 0  9997,2 52631  53.2154  18.1984 0002280  68.4457 291.6778 15.08825070 38216,6917.926,95.438,541.368,538.214,0.0
52631.0,STARLINK-3794,PAYLOAD,2023-01-18 05:24:08,15.08861293,0.0002133999999999,53.2134,15.8181,65.2371,294.8843,0.0018939,0.0003,0.0,0 STARLINK-3794,1 52631U 22052AK  23018.22509526  .00030000  00000-0  18939-2 0  9998,2 52631  53.2134  15.8181 0002134  65.2371 294.8843 15.08861293 38298,6917.815,95.436,541.1569999999999,538.2040000000001,0.0
52631.0,STARLINK-3794,PAYLOAD,2023-01-18 16:31:49,15.08870068,0.0002245,53.2136,13.7348,70.0734,290.0499,0.0015937999999999,0.0002519,0.0,0 STARLINK-3794,1 52631U 22052AK  23018.68877101  .00025190  00000-0  15938-2 0  9995,2 52631  53.2136  13.7348 0002245  70.0734 290.0499 15.08870068 38365,6917.7880000000005,95.436,541.207,538.1,0.0
52631.0,STARLINK-3794,PAYLOAD,2023-01-19 10:01:03,15.0888753,0.0002148,53.2137,10.461,70.0315,290.0909,0.0020482,0.00032503,0.0,0 STARLINK-3794,1 52631U 22052AK  23019.41739737  .00032503  00000-0  20482-2 0  9995,2 52631  53.2137  10.4610 0002148  70.0315 290.0909 15.08887530 38479,6917.735,95.435,541.086,538.114,0.0
52631.0,STARLINK-3794,PAYLOAD,2023-01-19 16:22:35,15.08865745,0.0002443,53.2136,9.2669,78.6305,281.4961,0.00086959,0.00013588,0.0,0 STARLINK-3794,1 52631U 22052AK  23019.68235905  .00013588  00000-0  86959-3 0  9996,2 52631  53.2136   9.2669 0002443  78.6305 281.4961 15.08865745 38510,6917.802,95.436,541.357,537.977,0.0
